{
  "type": "FeatureCollection",
  "features": [
    {
      "type": "Feature",
      "properties": {
        "norad_id": 43262,
        "name": "GAOFEN-1 04",
        "group": "resource",
        "lat": 54.43090864515365,
        "lon": -117.49413134984742,
        "alt_km": 635.1013671220771,
        "timestamp": "2025-12-19T04:59:47.958259+00:00",
        "meta_object_name": "GAOFEN-1 04",
        "meta_object_id": "2018-031D",
        "meta_epoch": "2025-12-18T23:33:15.977952",
        "meta_mean_motion": 14.7646114,
        "meta_eccentricity": 8.465e-05,
        "meta_inclination": 98.0806,
        "meta_ra_of_asc_node": 50.8199,
        "meta_arg_of_pericenter": 62.2562,
        "meta_mean_anomaly": 297.8734,
        "meta_ephemeris_type": 0,
        "meta_classification_type": "U",
        "meta_norad_cat_id": 43262,
        "meta_element_set_no": 999,
        "meta_rev_at_epoch": 41609,
        "meta_bstar": 7.0331369e-05,
        "meta_mean_motion_dot": 4.38e-06,
        "meta_mean_motion_ddot": 0,
        "tle_line1": "1 43262U 18031D   25352.98143493  .00000438  00000+0  70331-4 0  9990",
        "tle_line2": "2 43262  98.0806  50.8199 0000846  62.2562 297.8734 14.76461140416097"
      },
      "geometry": {
        "type": "Point",
        "coordinates": [
          -117.49413134984742,
          54.43090864515365
        ]
      }
    },
    {
      "type": "Feature",
      "properties": {
        "norad_id": 43437,
        "name": "SENTINEL-3B",
        "group": "resource",
        "lat": -35.00247211076816,
        "lon": -127.8015330721422,
        "alt_km": 809.4694582980292,
        "timestamp": "2025-12-19T04:59:47.958269+00:00",
        "meta_object_name": "SENTINEL-3B",
        "meta_object_id": "2018-039A",
        "meta_epoch": "2025-12-18T19:34:29.618976",
        "meta_mean_motion": 14.26736281,
        "meta_eccentricity": 0.0001618,
        "meta_inclination": 98.6261,
        "meta_ra_of_asc_node": 57.9137,
        "meta_arg_of_pericenter": 95.564,
        "meta_mean_anomaly": 264.5725,
        "meta_ephemeris_type": 0,
        "meta_classification_type": "U",
        "meta_norad_cat_id": 43437,
        "meta_element_set_no": 999,
        "meta_rev_at_epoch": 39840,
        "meta_bstar": 6.5108738e-05,
        "meta_mean_motion_dot": 1.14e-06,
        "meta_mean_motion_ddot": 0,
        "tle_line1": "1 43437U 18039A   25352.81562059  .00000114  00000+0  65109-4 0  9995",
        "tle_line2": "2 43437  98.6261  57.9137 0001618  95.5640 264.5725 14.26736281398407"
      },
      "geometry": {
        "type": "Point",
        "coordinates": [
          -127.8015330721422,
          -35.00247211076816
        ]
      }
    },
    {
      "type": "Feature",
      "properties": {
        "norad_id": 43461,
        "name": "GAOFEN-5 01",
        "group": "resource",
        "lat": -81.20855610595643,
        "lon": 62.69589199531632,
        "alt_km": 698.8327164112352,
        "timestamp": "2025-12-19T04:59:47.958279+00:00",
        "meta_object_name": "GAOFEN-5 01",
        "meta_object_id": "2018-043A",
        "meta_epoch": "2025-12-18T21:11:52.396512",
        "meta_mean_motion": 14.60416266,
        "meta_eccentricity": 5.996e-05,
        "meta_inclination": 98.4332,
        "meta_ra_of_asc_node": 315.9579,
        "meta_arg_of_pericenter": 306.2833,
        "meta_mean_anomaly": 53.8311,
        "meta_ephemeris_type": 0,
        "meta_classification_type": "U",
        "meta_norad_cat_id": 43461,
        "meta_element_set_no": 999,
        "meta_rev_at_epoch": 40537,
        "meta_bstar": 8.1639853e-05,
        "meta_mean_motion_dot": 3.47e-06,
        "meta_mean_motion_ddot": 0,
        "tle_line1": "1 43461U 18043A   25352.88324533  .00000347  00000+0  81640-4 0  9993",
        "tle_line2": "2 43461  98.4332 315.9579 0000599 306.2833  53.8311 14.60416266405372"
      },
      "geometry": {
        "type": "Point",
        "coordinates": [
          62.69589199531632,
          -81.20855610595643
        ]
      }
    },
    {
      "type": "Feature",
      "properties": {
        "norad_id": 43484,
        "name": "GAOFEN-6",
        "group": "resource",
        "lat": -78.65094630251608,
        "lon": 100.35427231886726,
        "alt_km": 652.8446102234229,
        "timestamp": "2025-12-19T04:59:47.958289+00:00",
        "meta_object_name": "GAOFEN-6",
        "meta_object_id": "2018-048A",
        "meta_epoch": "2025-12-18T22:51:39.016224",
        "meta_mean_motion": 14.76577528,
        "meta_eccentricity": 0.00129389,
        "meta_inclination": 97.8031,
        "meta_ra_of_asc_node": 57.0111,
        "meta_arg_of_pericenter": 45.266,
        "meta_mean_anomaly": 314.9601,
        "meta_ephemeris_type": 0,
        "meta_classification_type": "U",
        "meta_norad_cat_id": 43484,
        "meta_element_set_no": 999,
        "meta_rev_at_epoch": 40679,
        "meta_bstar": 0.00012369559,
        "meta_mean_motion_dot": 8.15e-06,
        "meta_mean_motion_ddot": 0,
        "tle_line1": "1 43484U 18048A   25352.95253491  .00000815  00000+0  12370-3 0  9998",
        "tle_line2": "2 43484  97.8031  57.0111 0012938  45.2660 314.9601 14.76577528406796"
      },
      "geometry": {
        "type": "Point",
        "coordinates": [
          100.35427231886726,
          -78.65094630251608
        ]
      }
    },
    {
      "type": "Feature",
      "properties": {
        "norad_id": 43585,
        "name": "GAOFEN-11 01",
        "group": "resource",
        "lat": -23.882634734081513,
        "lon": 59.278075823597625,
        "alt_km": 422.59252741612636,
        "timestamp": "2025-12-19T04:59:47.958300+00:00",
        "meta_object_name": "GAOFEN-11 01",
        "meta_object_id": "2018-063A",
        "meta_epoch": "2025-12-18T22:54:00.952416",
        "meta_mean_motion": 15.49387827,
        "meta_eccentricity": 0.00039893,
        "meta_inclination": 97.1566,
        "meta_ra_of_asc_node": 55.8368,
        "meta_arg_of_pericenter": 281.6841,
        "meta_mean_anomaly": 78.3963,
        "meta_ephemeris_type": 0,
        "meta_classification_type": "U",
        "meta_norad_cat_id": 43585,
        "meta_element_set_no": 999,
        "meta_rev_at_epoch": 41238,
        "meta_bstar": 0.00017797366,
        "meta_mean_motion_dot": 9.673e-05,
        "meta_mean_motion_ddot": 0,
        "tle_line1": "1 43585U 18063A   25352.95417769  .00009673  00000+0  17797-3 0  9996",
        "tle_line2": "2 43585  97.1566  55.8368 0003989 281.6841  78.3963 15.49387827412383"
      },
      "geometry": {
        "type": "Point",
        "coordinates": [
          59.278075823597625,
          -23.882634734081513
        ]
      }
    },
    {
      "type": "Feature",
      "properties": {
        "norad_id": 43613,
        "name": "ICESAT-2",
        "group": "resource",
        "lat": -58.547775921719435,
        "lon": -114.23364166496182,
        "alt_km": 490.10668762996556,
        "timestamp": "2025-12-19T04:59:47.958310+00:00",
        "meta_object_name": "ICESAT-2",
        "meta_object_id": "2018-070A",
        "meta_epoch": "2025-12-18T21:23:43.897056",
        "meta_mean_motion": 15.28302033,
        "meta_eccentricity": 0.00029087,
        "meta_inclination": 92.0051,
        "meta_ra_of_asc_node": 242.3973,
        "meta_arg_of_pericenter": 128.7002,
        "meta_mean_anomaly": 231.4508,
        "meta_ephemeris_type": 0,
        "meta_classification_type": "U",
        "meta_norad_cat_id": 43613,
        "meta_element_set_no": 999,
        "meta_rev_at_epoch": 40492,
        "meta_bstar": 0.00035915988,
        "meta_mean_motion_dot": 9.9e-05,
        "meta_mean_motion_ddot": 0,
        "tle_line1": "1 43613U 18070A   25352.89148029  .00009900  00000+0  35916-3 0  9995",
        "tle_line2": "2 43613  92.0051 242.3973 0002908 128.7002 231.4508 15.28302033404924"
      },
      "geometry": {
        "type": "Point",
        "coordinates": [
          -114.23364166496182,
          -58.547775921719435
        ]
      }
    },
    {
      "type": "Feature",
      "properties": {
        "norad_id": 43719,
        "name": "HYSIS",
        "group": "resource",
        "lat": 2.0960527904657775,
        "lon": 55.859368679200195,
        "alt_km": 635.7574145254694,
        "timestamp": "2025-12-19T04:59:47.958320+00:00",
        "meta_object_name": "HYSIS",
        "meta_object_id": "2018-096A",
        "meta_epoch": "2025-12-18T22:29:26.920032",
        "meta_mean_motion": 14.78660948,
        "meta_eccentricity": 0.00011223,
        "meta_inclination": 98.0097,
        "meta_ra_of_asc_node": 55.8849,
        "meta_arg_of_pericenter": 50.4304,
        "meta_mean_anomaly": 309.7006,
        "meta_ephemeris_type": 0,
        "meta_classification_type": "U",
        "meta_norad_cat_id": 43719,
        "meta_element_set_no": 999,
        "meta_rev_at_epoch": 38078,
        "meta_bstar": 0.0001298207,
        "meta_mean_motion_dot": 8.99e-06,
        "meta_mean_motion_ddot": 0,
        "tle_line1": "1 43719U 18096A   25352.93711713  .00000899  00000+0  12982-3 0  9997",
        "tle_line2": "2 43719  98.0097  55.8849 0001122  50.4304 309.7006 14.78660948380784"
      },
      "geometry": {
        "type": "Point",
        "coordinates": [
          55.859368679200195,
          2.0960527904657775
        ]
      }
    }
  ]
}